[{"OBJECT_NAME":"STARLINK-30550","OBJECT_ID":"2023-156T","EPOCH":"2026-01-15T20:04:53.948928","MEAN_MOTION":15.30197789,"ECCENTRICITY":0.00013399,"INCLINATION":53.1591,"RA_OF_ASC_NODE":246.8486,"ARG_OF_PERICENTER":76.1063,"MEAN_ANOMALY":284.0086,"EPHEMERIS_TYPE":0,"CLASSIFICATION_TYPE":"U","NORAD_CAT_ID":58045,"ELEMENT_SET_NO":999,"REV_AT_EPOCH":12928,"BSTAR":-1.576269e-5,"MEAN_MOTION_DOT":-8.26e-6,"MEAN_MOTION_DDOT":0},{"OBJECT_NAME":"STARLINK-30548","OBJECT_ID":"2023-156U","EPOCH":"2026-01-15T09:35:13.471872","MEAN_MOTION":15.30197505,"ECCENTRICITY":0.00011651,"INCLINATION":53.1602,"RA_OF_ASC_NODE":55.7303,"ARG_OF_PERICENTER":96.56,"MEAN_ANOMALY":263.5533,"EPHEMERIS_TYPE":0,"CLASSIFICATION_TYPE":"U","NORAD_CAT_ID":58046,"ELEMENT_SET_NO":999,"REV_AT_EPOCH":12682,"BSTAR":6.547212e-5,"MEAN_MOTION_DOT":1.58e-5,"MEAN_MOTION_DDOT":0},{"OBJECT_NAME":"STARLINK-30529","OBJECT_ID":"2023-156V","EPOCH":"2026-01-15T08:40:42.989952","MEAN_MOTION":15.30178394,"ECCENTRICITY":0.00013523,"INCLINATION":53.1616,"RA_OF_ASC_NODE":56.1862,"ARG_OF_PERICENTER":57.936,"MEAN_ANOMALY":302.1772,"EPHEMERIS_TYPE":0,"CLASSIFICATION_TYPE":"U","NORAD_CAT_ID":58047,"ELEMENT_SET_NO":999,"REV_AT_EPOCH":12681,"BSTAR":-2.7023819e-5,"MEAN_MOTION_DOT":-1.159e-5,"MEAN_MOTION_DDOT":0},{"OBJECT_NAME":"STARLINK-30554","OBJECT_ID":"2023-156W","EPOCH":"2026-01-15T09:13:56.894592","MEAN_MOTION":15.30197063,"ECCENTRICITY":0.00011641,"INCLINATION":53.1609,"RA_OF_ASC_NODE":55.6366,"ARG_OF_PERICENTER":78.3836,"MEAN_ANOMALY":281.7295,"EPHEMERIS_TYPE":0,"CLASSIFICATION_TYPE":"U","NORAD_CAT_ID":58048,"ELEMENT_SET_NO":999,"REV_AT_EPOCH":12682,"BSTAR":2.8887871e-5,"MEAN_MOTION_DOT":4.96e-6,"MEAN_MOTION_DDOT":0},{"OBJECT_NAME":"STARLINK-30568","OBJECT_ID":"2023-158A","EPOCH":"2026-01-15T21:03:28.398528","MEAN_MOTION":15.02539143,"ECCENTRICITY":0.00013854,"INCLINATION":43.006,"RA_OF_ASC_NODE":317.5876,"ARG_OF_PERICENTER":263.3827,"MEAN_ANOMALY":96.6857,"EPHEMERIS_TYPE":0,"CLASSIFICATION_TYPE":"U","NORAD_CAT_ID":58051,"ELEMENT_SET_NO":999,"REV_AT_EPOCH":12558,"BSTAR":1.9670506e-5,"MEAN_MOTION_DOT":6.2e-7,"MEAN_MOTION_DDOT":0},{"OBJECT_NAME":"STARLINK-30575","OBJECT_ID":"2023-158B","EPOCH":"2026-01-15T19:37:20.035200","MEAN_MOTION":15.02537745,"ECCENTRICITY":9.977e-5,"INCLINATION":43.0039,"RA_OF_ASC_NODE":318.0023,"ARG_OF_PERICENTER":283.203,"MEAN_ANOMALY":76.8701,"EPHEMERIS_TYPE":0,"CLASSIFICATION_TYPE":"U","NORAD_CAT_ID":58052,"ELEMENT_SET_NO":999,"REV_AT_EPOCH":12557,"BSTAR":4.8029568e-5,"MEAN_MOTION_DOT":4.45e-6,"MEAN_MOTION_DDOT":0},{"OBJECT_NAME":"STARLINK-30577","OBJECT_ID":"2023-158C","EPOCH":"2026-01-15T20:58:40.524096","MEAN_MOTION":15.02537329,"ECCENTRICITY":6.928e-5,"INCLINATION":43.0044,"RA_OF_ASC_NODE":317.5468,"ARG_OF_PERICENTER":291.3745,"MEAN_ANOMALY":68.7024,"EPHEMERIS_TYPE":0,"CLASSIFICATION_TYPE":"U","NORAD_CAT_ID":58053,"ELEMENT_SET_NO":999,"REV_AT_EPOCH":12558,"BSTAR":3.2666609e-5,"MEAN_MOTION_DOT":2.38e-6,"MEAN_MOTION_DDOT":0},{"OBJECT_NAME":"STARLINK-30566","OBJECT_ID":"2023-158D","EPOCH":"2026-01-15T20:49:05.046528","MEAN_MOTION":15.02590221,"ECCENTRICITY":0.00016748,"INCLINATION":42.998,"RA_OF_ASC_NODE":317.5177,"ARG_OF_PERICENTER":197.8396,"MEAN_ANOMALY":162.2388,"EPHEMERIS_TYPE":0,"CLASSIFICATION_TYPE":"U","NORAD_CAT_ID":58054,"ELEMENT_SET_NO":999,"REV_AT_EPOCH":12558,"BSTAR":0.0034907513,"MEAN_MOTION_DOT":0.00047339,"MEAN_MOTION_DDOT":0},{"OBJECT_NAME":"STARLINK-30544","OBJECT_ID":"2023-158E","EPOCH":"2026-01-15T22:00:51.469632","MEAN_MOTION":15.02531918,"ECCENTRICITY":4.161e-5,"INCLINATION":43.0047,"RA_OF_ASC_NODE":317.0282,"ARG_OF_PERICENTER":107.4333,"MEAN_ANOMALY":252.6555,"EPHEMERIS_TYPE":0,"CLASSIFICATION_TYPE":"U","NORAD_CAT_ID":58055,"ELEMENT_SET_NO":999,"REV_AT_EPOCH":12559,"BSTAR":-8.1751754e-5,"MEAN_MOTION_DOT":-1.307e-5,"MEAN_MOTION_DDOT":0},{"OBJECT_NAME":"STARLINK-30553","OBJECT_ID":"2023-158F","EPOCH":"2026-01-15T22:15:13.661280","MEAN_MOTION":15.02539015,"ECCENTRICITY":9.618e-5,"INCLINATION":43.005,"RA_OF_ASC_NODE":317.1029,"ARG_OF_PERICENTER":271.2737,"MEAN_ANOMALY":88.7995,"EPHEMERIS_TYPE":0,"CLASSIFICATION_TYPE":"U","NORAD_CAT_ID":58056,"ELEMENT_SET_NO":999,"REV_AT_EPOCH":12559,"BSTAR":0.00015213263,"MEAN_MOTION_DOT":1.852e-5,"MEAN_MOTION_DDOT":0},{"OBJECT_NAME":"STARLINK-30541","OBJECT_ID":"2023-158G","EPOCH":"2026-01-15T20:44:16.717632","MEAN_MOTION":15.02611082,"ECCENTRICITY":0.00012699,"INCLINATION":43.0046,"RA_OF_ASC_NODE":317.4906,"ARG_OF_PERICENTER":281.3502,"MEAN_ANOMALY":78.7197,"EPHEMERIS_TYPE":0,"CLASSIFICATION_TYPE":"U","NORAD_CAT_ID":58057,"ELEMENT_SET_NO":999,"REV_AT_EPOCH":12558,"BSTAR":-0.0012815887,"MEAN_MOTION_DOT":-0.00017507,"MEAN_MOTION_DDOT":0},{"OBJECT_NAME":"STARLINK-30573","OBJECT_ID":"2023-158H","EPOCH":"2026-01-15T22:10:25.944096","MEAN_MOTION":15.02539783,"ECCENTRICITY":0.00010272,"INCLINATION":43.0054,"RA_OF_ASC_NODE":317.0788,"ARG_OF_PERICENTER":274.6422,"MEAN_ANOMALY":85.4303,"EPHEMERIS_TYPE":0,"CLASSIFICATION_TYPE":"U","NORAD_CAT_ID":58058,"ELEMENT_SET_NO":999,"REV_AT_EPOCH":12559,"BSTAR":3.3030709e-5,"MEAN_MOTION_DOT":2.43e-6,"MEAN_MOTION_DDOT":0},{"OBJECT_NAME":"STARLINK-30582","OBJECT_ID":"2023-158J","EPOCH":"2026-01-15T20:20:18.107520","MEAN_MOTION":15.0254838,"ECCENTRICITY":9.376e-5,"INCLINATION":43.0037,"RA_OF_ASC_NODE":317.368,"ARG_OF_PERICENTER":273.0699,"MEAN_ANOMALY":87.0037,"EPHEMERIS_TYPE":0,"CLASSIFICATION_TYPE":"U","NORAD_CAT_ID":58059,"ELEMENT_SET_NO":999,"REV_AT_EPOCH":12558,"BSTAR":6.65722e-5,"MEAN_MOTION_DOT":6.96e-6,"MEAN_MOTION_DDOT":0},{"OBJECT_NAME":"STARLINK-30558","OBJECT_ID":"2023-158K","EPOCH":"2026-01-15T21:17:51.693504","MEAN_MOTION":15.02534927,"ECCENTRICITY":0.00011854,"INCLINATION":43.0043,"RA_OF_ASC_NODE":317.6497,"ARG_OF_PERICENTER":248.3234,"MEAN_ANOMALY":111.7482,"EPHEMERIS_TYPE":0,"CLASSIFICATION_TYPE":"U","NORAD_CAT_ID":58060,"ELEMENT_SET_NO":999,"REV_AT_EPOCH":12558,"BSTAR":-1.085062e-5,"MEAN_MOTION_DOT":-3.5e-6,"MEAN_MOTION_DDOT":0},{"OBJECT_NAME":"STARLINK-30579","OBJECT_ID":"2023-158L","EPOCH":"2026-01-15T21:52:08.086080","MEAN_MOTION":15.02542342,"ECCENTRICITY":8.411e-5,"INCLINATION":43.0047,"RA_OF_ASC_NODE":291.6729,"ARG_OF_PERICENTER":271.7608,"MEAN_ANOMALY":88.3138,"EPHEMERIS_TYPE":0,"CLASSIFICATION_TYPE":"U","NORAD_CAT_ID":58061,"ELEMENT_SET_NO":999,"REV_AT_EPOCH":12588,"BSTAR":8.6464813e-5,"MEAN_MOTION_DOT":9.65e-6,"MEAN_MOTION_DDOT":0},{"OBJECT_NAME":"STARLINK-30588","OBJECT_ID":"2023-158M","EPOCH":"2026-01-15T20:10:43.819680","MEAN_MOTION":15.02529679,"ECCENTRICITY":0.00012907,"INCLINATION":43.0051,"RA_OF_ASC_NODE":317.3134,"ARG_OF_PERICENTER":265.0578,"MEAN_ANOMALY":95.0117,"EPHEMERIS_TYPE":0,"CLASSIFICATION_TYPE":"U","NORAD_CAT_ID":58062,"ELEMENT_SET_NO":999,"REV_AT_EPOCH":12558,"BSTAR":0.00011298929,"MEAN_MOTION_DOT":1.323e-5,"MEAN_MOTION_DDOT":0},{"OBJECT_NAME":"STARLINK-30585","OBJECT_ID":"2023-158N","EPOCH":"2026-01-15T19:56:21.700608","MEAN_MOTION":15.02539209,"ECCENTRICITY":9.58e-5,"INCLINATION":43.0054,"RA_OF_ASC_NODE":317.2407,"ARG_OF_PERICENTER":278.5556,"MEAN_ANOMALY":81.5178,"EPHEMERIS_TYPE":0,"CLASSIFICATION_TYPE":"U","NORAD_CAT_ID":58063,"ELEMENT_SET_NO":999,"REV_AT_EPOCH":12558,"BSTAR":9.4621034e-5,"MEAN_MOTION_DOT":1.075e-5,"MEAN_MOTION_DDOT":0},{"OBJECT_NAME":"STARLINK-30587","OBJECT_ID":"2023-158P","EPOCH":"2026-01-15T20:15:31.447008","MEAN_MOTION":15.02537474,"ECCENTRICITY":9.088e-5,"INCLINATION":43.0048,"RA_OF_ASC_NODE":317.3405,"ARG_OF_PERICENTER":277.5476,"MEAN_ANOMALY":82.5263,"EPHEMERIS_TYPE":0,"CLASSIFICATION_TYPE":"U","NORAD_CAT_ID":58064,"ELEMENT_SET_NO":999,"REV_AT_EPOCH":12558,"BSTAR":3.5298589e-5,"MEAN_MOTION_DOT":2.73e-6,"MEAN_MOTION_DDOT":0},{"OBJECT_NAME":"STARLINK-30576","OBJECT_ID":"2023-158Q","EPOCH":"2026-01-15T20:53:54.451968","MEAN_MOTION":15.02525087,"ECCENTRICITY":0.00017042,"INCLINATION":43.0077,"RA_OF_ASC_NODE":317.5392,"ARG_OF_PERICENTER":261.6911,"MEAN_ANOMALY":98.3738,"EPHEMERIS_TYPE":0,"CLASSIFICATION_TYPE":"U","NORAD_CAT_ID":58065,"ELEMENT_SET_NO":999,"REV_AT_EPOCH":12558,"BSTAR":7.6466328e-5,"MEAN_MOTION_DOT":8.29e-6,"MEAN_MOTION_DDOT":0},{"OBJECT_NAME":"STARLINK-30571","OBJECT_ID":"2023-158R","EPOCH":"2026-01-15T05:25:13.886688","MEAN_MOTION":15.02528511,"ECCENTRICITY":0.00011936,"INCLINATION":43.0049,"RA_OF_ASC_NODE":320.4404,"ARG_OF_PERICENTER":256.5929,"MEAN_ANOMALY":103.4781,"EPHEMERIS_TYPE":0,"CLASSIFICATION_TYPE":"U","NORAD_CAT_ID":58066,"ELEMENT_SET_NO":999,"REV_AT_EPOCH":12549,"BSTAR":0.00018965174,"MEAN_MOTION_DOT":2.359e-5,"MEAN_MOTION_DDOT":0},{"OBJECT_NAME":"STARLINK-30567","OBJECT_ID":"2023-158S","EPOCH":"2026-01-15T05:17:22.943616","MEAN_MOTION":15.02530292,"ECCENTRICITY":9.734e-5,"INCLINATION":43.0042,"RA_OF_ASC_NODE":321.2445,"ARG_OF_PERICENTER":262.046,"MEAN_ANOMALY":98.0272,"EPHEMERIS_TYPE":0,"CLASSIFICATION_TYPE":"U","NORAD_CAT_ID":58067,"ELEMENT_SET_NO":999,"REV_AT_EPOCH":12548,"BSTAR":5.7120134e-5,"MEAN_MOTION_DOT":5.68e-6,"MEAN_MOTION_DDOT":0},{"OBJECT_NAME":"STARLINK-30569","OBJECT_ID":"2023-158T","EPOCH":"2026-01-15T20:05:56.100768","MEAN_MOTION":15.025388,"ECCENTRICITY":0.00013604,"INCLINATION":43.0043,"RA_OF_ASC_NODE":317.2889,"ARG_OF_PERICENTER":262.9145,"MEAN_ANOMALY":97.1542,"EPHEMERIS_TYPE":0,"CLASSIFICATION_TYPE":"U","NORAD_CAT_ID":58068,"ELEMENT_SET_NO":999,"REV_AT_EPOCH":12558,"BSTAR":1.590572e-5,"MEAN_MOTION_DOT":1.1e-7,"MEAN_MOTION_DDOT":0},{"OBJECT_NAME":"STARLINK-30480","OBJECT_ID":"2023-158U","EPOCH":"2026-01-15T20:58:01.980192","MEAN_MOTION":15.27569141,"ECCENTRICITY":0.00016993,"INCLINATION":42.9997,"RA_OF_ASC_NODE":183.1025,"ARG_OF_PERICENTER":259.6687,"MEAN_ANOMALY":100.3973,"EPHEMERIS_TYPE":0,"CLASSIFICATION_TYPE":"U","NORAD_CAT_ID":58069,"ELEMENT_SET_NO":999,"REV_AT_EPOCH":12716,"BSTAR":0.00011439097,"MEAN_MOTION_DOT":2.886e-5,"MEAN_MOTION_DDOT":0}]
